UMBRA-07                
1 58297U 23174AT  26068.71829358  .00012685  00000+0  84614-3 0  9990
2 58297  97.3902 128.3323 0004131  75.5473 284.6213 15.07174057128425
STARLINK-35383          
1 65793U 25218C   26068.62815039  .00007300  00000+0  50948-3 0  9992
2 65793  97.6021 292.9417 0002724  84.2925 275.8613 15.05658147 24961
