[{"OBJECT_NAME":"UMBRA-07","OBJECT_ID":"2023-174AT","EPOCH":"2026-03-09T17:14:20.565312","MEAN_MOTION":15.07174057,"ECCENTRICITY":0.00041314,"INCLINATION":97.3902,"RA_OF_ASC_NODE":128.3323,"ARG_OF_PERICENTER":75.5473,"MEAN_ANOMALY":284.6213,"EPHEMERIS_TYPE":0,"CLASSIFICATION_TYPE":"U","NORAD_CAT_ID":58297,"ELEMENT_SET_NO":999,"REV_AT_EPOCH":12842,"BSTAR":0.0008461425,"MEAN_MOTION_DOT":0.00012685,"MEAN_MOTION_DDOT":0},{"OBJECT_NAME":"STARLINK-35383","OBJECT_ID":"2025-218C","EPOCH":"2026-03-09T15:04:32.193696","MEAN_MOTION":15.05658147,"ECCENTRICITY":0.0002724,"INCLINATION":97.6021,"RA_OF_ASC_NODE":292.9417,"ARG_OF_PERICENTER":84.2925,"MEAN_ANOMALY":275.8613,"EPHEMERIS_TYPE":0,"CLASSIFICATION_TYPE":"U","NORAD_CAT_ID":65793,"ELEMENT_SET_NO":999,"REV_AT_EPOCH":2496,"BSTAR":0.00050948,"MEAN_MOTION_DOT":7.3e-5,"MEAN_MOTION_DDOT":0}]
